[{"OBJECT_NAME":"STARLINK-11594 [DTC]","OBJECT_ID":"2025-124D","EPOCH":"2026-01-23T19:42:54.421344","MEAN_MOTION":15.71000373,"ECCENTRICITY":0.0001593,"INCLINATION":42.9983,"RA_OF_ASC_NODE":300.0364,"ARG_OF_PERICENTER":213.3036,"MEAN_ANOMALY":146.7732,"EPHEMERIS_TYPE":0,"CLASSIFICATION_TYPE":"U","NORAD_CAT_ID":64320,"ELEMENT_SET_NO":999,"REV_AT_EPOCH":3577,"BSTAR":0.0020018649,"MEAN_MOTION_DOT":0.0026662,"MEAN_MOTION_DDOT":0},{"OBJECT_NAME":"STARLINK-11596 [DTC]","OBJECT_ID":"2025-124E","EPOCH":"2026-01-23T19:27:36.796320","MEAN_MOTION":15.70909883,"ECCENTRICITY":0.00017818,"INCLINATION":42.9991,"RA_OF_ASC_NODE":299.951,"ARG_OF_PERICENTER":273.7311,"MEAN_ANOMALY":86.3352,"EPHEMERIS_TYPE":0,"CLASSIFICATION_TYPE":"U","NORAD_CAT_ID":64321,"ELEMENT_SET_NO":999,"REV_AT_EPOCH":3577,"BSTAR":0.0013926173,"MEAN_MOTION_DOT":0.00182764,"MEAN_MOTION_DDOT":0},{"OBJECT_NAME":"STARLINK-11747 [DTC]","OBJECT_ID":"2025-124F","EPOCH":"2026-01-23T19:12:19.006272","MEAN_MOTION":15.70942511,"ECCENTRICITY":0.00018,"INCLINATION":42.9986,"RA_OF_ASC_NODE":299.864,"ARG_OF_PERICENTER":313.4442,"MEAN_ANOMALY":46.6276,"EPHEMERIS_TYPE":0,"CLASSIFICATION_TYPE":"U","NORAD_CAT_ID":64322,"ELEMENT_SET_NO":999,"REV_AT_EPOCH":3577,"BSTAR":0.0027529722,"MEAN_MOTION_DOT":0.003706,"MEAN_MOTION_DDOT":0},{"OBJECT_NAME":"STARLINK-11728 [DTC]","OBJECT_ID":"2025-124G","EPOCH":"2026-01-23T15:23:19.546080","MEAN_MOTION":15.71015694,"ECCENTRICITY":0.00016302,"INCLINATION":42.9989,"RA_OF_ASC_NODE":300.374,"ARG_OF_PERICENTER":255.603,"MEAN_ANOMALY":104.4657,"EPHEMERIS_TYPE":0,"CLASSIFICATION_TYPE":"U","NORAD_CAT_ID":64323,"ELEMENT_SET_NO":999,"REV_AT_EPOCH":3575,"BSTAR":0.0025991344,"MEAN_MOTION_DOT":0.00350065,"MEAN_MOTION_DDOT":0},{"OBJECT_NAME":"STARLINK-11696 [DTC]","OBJECT_ID":"2025-124H","EPOCH":"2026-01-23T18:41:44.654784","MEAN_MOTION":15.71015971,"ECCENTRICITY":0.00023007,"INCLINATION":42.9981,"RA_OF_ASC_NODE":299.6924,"ARG_OF_PERICENTER":226.023,"MEAN_ANOMALY":134.0448,"EPHEMERIS_TYPE":0,"CLASSIFICATION_TYPE":"U","NORAD_CAT_ID":64324,"ELEMENT_SET_NO":999,"REV_AT_EPOCH":3577,"BSTAR":0.0023769314,"MEAN_MOTION_DOT":0.0031889,"MEAN_MOTION_DDOT":0},{"OBJECT_NAME":"STARLINK-11698 [DTC]","OBJECT_ID":"2025-124J","EPOCH":"2026-01-23T18:50:41.680896","MEAN_MOTION":15.70803277,"ECCENTRICITY":0.00014364,"INCLINATION":42.999,"RA_OF_ASC_NODE":299.7407,"ARG_OF_PERICENTER":259.4581,"MEAN_ANOMALY":100.6125,"EPHEMERIS_TYPE":0,"CLASSIFICATION_TYPE":"U","NORAD_CAT_ID":64325,"ELEMENT_SET_NO":999,"REV_AT_EPOCH":3577,"BSTAR":0.0011498487,"MEAN_MOTION_DOT":0.00149545,"MEAN_MOTION_DDOT":0},{"OBJECT_NAME":"STARLINK-11678 [DTC]","OBJECT_ID":"2025-124K","EPOCH":"2026-01-23T19:19:57.057600","MEAN_MOTION":15.70965665,"ECCENTRICITY":0.0001886,"INCLINATION":42.9991,"RA_OF_ASC_NODE":299.9061,"ARG_OF_PERICENTER":253.1306,"MEAN_ANOMALY":106.9355,"EPHEMERIS_TYPE":0,"CLASSIFICATION_TYPE":"U","NORAD_CAT_ID":64326,"ELEMENT_SET_NO":999,"REV_AT_EPOCH":3577,"BSTAR":0.0019720433,"MEAN_MOTION_DOT":0.00262115,"MEAN_MOTION_DDOT":0},{"OBJECT_NAME":"STARLINK-11674 [DTC]","OBJECT_ID":"2025-124L","EPOCH":"2026-01-23T18:34:05.886336","MEAN_MOTION":15.70834095,"ECCENTRICITY":0.00016327,"INCLINATION":42.9995,"RA_OF_ASC_NODE":299.6497,"ARG_OF_PERICENTER":250.3054,"MEAN_ANOMALY":109.7637,"EPHEMERIS_TYPE":0,"CLASSIFICATION_TYPE":"U","NORAD_CAT_ID":64327,"ELEMENT_SET_NO":999,"REV_AT_EPOCH":3577,"BSTAR":0.0013940884,"MEAN_MOTION_DOT":0.00182366,"MEAN_MOTION_DDOT":0},{"OBJECT_NAME":"STARLINK-11707 [DTC]","OBJECT_ID":"2025-124M","EPOCH":"2026-01-23T18:57:02.012832","MEAN_MOTION":15.7080991,"ECCENTRICITY":0.00012207,"INCLINATION":42.9992,"RA_OF_ASC_NODE":299.7766,"ARG_OF_PERICENTER":270.0205,"MEAN_ANOMALY":90.0523,"EPHEMERIS_TYPE":0,"CLASSIFICATION_TYPE":"U","NORAD_CAT_ID":64328,"ELEMENT_SET_NO":999,"REV_AT_EPOCH":3577,"BSTAR":0.0012028889,"MEAN_MOTION_DOT":0.00156641,"MEAN_MOTION_DDOT":0},{"OBJECT_NAME":"STARLINK-11734 [DTC]","OBJECT_ID":"2025-124N","EPOCH":"2026-01-23T18:18:48.457440","MEAN_MOTION":15.71070658,"ECCENTRICITY":0.00021908,"INCLINATION":42.9979,"RA_OF_ASC_NODE":299.5623,"ARG_OF_PERICENTER":243.5811,"MEAN_ANOMALY":116.4832,"EPHEMERIS_TYPE":0,"CLASSIFICATION_TYPE":"U","NORAD_CAT_ID":64329,"ELEMENT_SET_NO":999,"REV_AT_EPOCH":3577,"BSTAR":0.0029942697,"MEAN_MOTION_DOT":0.00407104,"MEAN_MOTION_DDOT":0},{"OBJECT_NAME":"STARLINK-34252","OBJECT_ID":"2025-124P","EPOCH":"2026-01-23T16:08:42.095616","MEAN_MOTION":15.2764209,"ECCENTRICITY":7.778e-5,"INCLINATION":43.0016,"RA_OF_ASC_NODE":16.1216,"ARG_OF_PERICENTER":260.9045,"MEAN_ANOMALY":99.1719,"EPHEMERIS_TYPE":0,"CLASSIFICATION_TYPE":"U","NORAD_CAT_ID":64330,"ELEMENT_SET_NO":999,"REV_AT_EPOCH":3489,"BSTAR":0.0029561299,"MEAN_MOTION_DOT":0.0008215,"MEAN_MOTION_DDOT":0},{"OBJECT_NAME":"STARLINK-34050","OBJECT_ID":"2025-124Q","EPOCH":"2026-01-23T09:37:15.643200","MEAN_MOTION":15.27656084,"ECCENTRICITY":0.000231,"INCLINATION":43.0067,"RA_OF_ASC_NODE":17.5215,"ARG_OF_PERICENTER":266.1125,"MEAN_ANOMALY":93.9463,"EPHEMERIS_TYPE":0,"CLASSIFICATION_TYPE":"U","NORAD_CAT_ID":64331,"ELEMENT_SET_NO":999,"REV_AT_EPOCH":3591,"BSTAR":0.002603781,"MEAN_MOTION_DOT":0.00072263,"MEAN_MOTION_DDOT":0},{"OBJECT_NAME":"STARLINK-33782","OBJECT_ID":"2025-124R","EPOCH":"2026-01-23T23:28:01.291872","MEAN_MOTION":15.27627625,"ECCENTRICITY":0.00014937,"INCLINATION":43.0017,"RA_OF_ASC_NODE":14.1015,"ARG_OF_PERICENTER":265.6461,"MEAN_ANOMALY":94.422,"EPHEMERIS_TYPE":0,"CLASSIFICATION_TYPE":"U","NORAD_CAT_ID":64332,"ELEMENT_SET_NO":999,"REV_AT_EPOCH":3494,"BSTAR":0.0026026146,"MEAN_MOTION_DOT":0.00072165,"MEAN_MOTION_DDOT":0},{"OBJECT_NAME":"STARLINK-34207","OBJECT_ID":"2025-124S","EPOCH":"2026-01-23T08:12:21.741120","MEAN_MOTION":15.27656145,"ECCENTRICITY":0.00025272,"INCLINATION":43.0067,"RA_OF_ASC_NODE":17.936,"ARG_OF_PERICENTER":259.8717,"MEAN_ANOMALY":100.1849,"EPHEMERIS_TYPE":0,"CLASSIFICATION_TYPE":"U","NORAD_CAT_ID":64333,"ELEMENT_SET_NO":999,"REV_AT_EPOCH":3484,"BSTAR":0.0028842543,"MEAN_MOTION_DOT":0.00080162,"MEAN_MOTION_DDOT":0},{"OBJECT_NAME":"STARLINK-34260","OBJECT_ID":"2025-124T","EPOCH":"2026-01-23T16:14:14.923104","MEAN_MOTION":15.27613204,"ECCENTRICITY":0.00013051,"INCLINATION":43.0033,"RA_OF_ASC_NODE":16.1451,"ARG_OF_PERICENTER":264.0863,"MEAN_ANOMALY":95.984,"EPHEMERIS_TYPE":0,"CLASSIFICATION_TYPE":"U","NORAD_CAT_ID":64334,"ELEMENT_SET_NO":999,"REV_AT_EPOCH":3489,"BSTAR":0.0019717845,"MEAN_MOTION_DOT":0.00054454,"MEAN_MOTION_DDOT":0},{"OBJECT_NAME":"STARLINK-33855","OBJECT_ID":"2025-124U","EPOCH":"2026-01-23T23:22:28.014240","MEAN_MOTION":15.2763603,"ECCENTRICITY":0.00031084,"INCLINATION":43.0008,"RA_OF_ASC_NODE":14.0667,"ARG_OF_PERICENTER":276.8955,"MEAN_ANOMALY":83.1543,"EPHEMERIS_TYPE":0,"CLASSIFICATION_TYPE":"U","NORAD_CAT_ID":64335,"ELEMENT_SET_NO":999,"REV_AT_EPOCH":3494,"BSTAR":0.0019038914,"MEAN_MOTION_DOT":0.00052598,"MEAN_MOTION_DDOT":0}]
