STARLINK-11594 [DTC]    
1 64320U 25124D   26023.82146321  .00266620  00000+0  20019-2 0  9994
2 64320  42.9983 300.0364 0001593 213.3036 146.7732 15.71000373 35773
STARLINK-11596 [DTC]    
1 64321U 25124E   26023.81084255  .00182764  00000+0  13926-2 0  9996
2 64321  42.9991 299.9510 0001781 273.7311  86.3352 15.70909883 35777
STARLINK-11747 [DTC]    
1 64322U 25124F   26023.80021998  .00370600  00000+0  27530-2 0  9995
2 64322  42.9986 299.8640 0001800 313.4442  46.6276 15.70942511 35773
STARLINK-11728 [DTC]    
1 64323U 25124G   26023.64119845  .00350065  00000+0  25991-2 0  9999
2 64323  42.9989 300.3740 0001630 255.6030 104.4657 15.71015694 35755
STARLINK-11696 [DTC]    
1 64324U 25124H   26023.77898906  .00318890  00000+0  23769-2 0  9997
2 64324  42.9981 299.6924 0002300 226.0230 134.0448 15.71015971 35778
STARLINK-11698 [DTC]    
1 64325U 25124J   26023.78520464  .00149545  00000+0  11498-2 0  9995
2 64325  42.9990 299.7407 0001436 259.4581 100.6125 15.70803277 35778
STARLINK-11678 [DTC]    
1 64326U 25124K   26023.80552150  .00262115  00000+0  19720-2 0  9991
2 64326  42.9991 299.9061 0001886 253.1306 106.9355 15.70965665 35777
STARLINK-11674 [DTC]    
1 64327U 25124L   26023.77367924  .00182366  00000+0  13941-2 0  9999
2 64327  42.9995 299.6497 0001632 250.3054 109.7637 15.70834095 35776
STARLINK-11707 [DTC]    
1 64328U 25124M   26023.78960663  .00156641  00000+0  12029-2 0  9993
2 64328  42.9992 299.7766 0001220 270.0205  90.0523 15.70809910 35778
STARLINK-11734 [DTC]    
1 64329U 25124N   26023.76306085  .00407104  00000+0  29943-2 0  9990
2 64329  42.9979 299.5623 0002190 243.5811 116.4832 15.71070658 35775
STARLINK-34252          
1 64330U 25124P   26023.67270944  .00082150  00000+0  29561-2 0  9992
2 64330  43.0016  16.1216 0000777 260.9045  99.1719 15.27642090 34892
STARLINK-34050          
1 64331U 25124Q   26023.40087550  .00072263  00000+0  26038-2 0  9993
2 64331  43.0067  17.5215 0002310 266.1125  93.9463 15.27656084 35915
STARLINK-33782          
1 64332U 25124R   26023.97779273  .00072165  00000+0  26026-2 0  9994
2 64332  43.0017  14.1015 0001493 265.6461  94.4220 15.27627625 34948
STARLINK-34207          
1 64333U 25124S   26023.34191830  .00080162  00000+0  28843-2 0  9998
2 64333  43.0067  17.9360 0002527 259.8717 100.1849 15.27656145 34846
STARLINK-34260          
1 64334U 25124T   26023.67656161  .00054454  00000+0  19718-2 0  9994
2 64334  43.0033  16.1451 0001305 264.0863  95.9840 15.27613204 34891
STARLINK-33855          
1 64335U 25124U   26023.97393535  .00052598  00000+0  19039-2 0  9994
2 64335  43.0008  14.0667 0003108 276.8955  83.1543 15.27636030 34943
